start=new Date('2021-10-21T00:00:00.000Z').valueOf();
sats=[{"MEAN_ELEMENT_THEORY":"SGP4","FILE":"3175135","NORAD_CAT_ID":"45538","OBJECT_TYPE":"PAYLOAD","ECCENTRICITY":"0.00015250","MEAN_MOTION_DDOT":"0.0000000000000","ELEMENT_SET_NO":"999","EPOCH":"2021-10-20T19:25:30.142560","APOAPSIS":"548.301","OBJECT_NAME":"STARLINK-1362","BSTAR":"-0.00006347100000","RCS_SIZE":"LARGE","MEAN_ANOMALY":"260.4175","TLE_LINE1":"1 45538U 20025H   21293.80937665 -.00001226  00000-0 -63471-4 0  9993","CLASSIFICATION_TYPE":"U","REV_AT_EPOCH":"8380","SITE":"AFETR","LAUNCH_DATE":"2020-04-22","RA_OF_ASC_NODE":"93.2499","TIME_SYSTEM":"UTC","SEMIMAJOR_AXIS":"6925.380","ARG_OF_PERICENTER":"99.6986","MEAN_MOTION_DOT":"-0.00001226","COUNTRY_CODE":"US","GP_ID":"187754232","EPHEMERIS_TYPE":"0","PERIAPSIS":"546.189","INCLINATION":"53.0548","DECAY_DATE":null,"REF_FRAME":"TEME","TLE_LINE2":"2 45538  53.0548  93.2499 0001525  99.6986 260.4175 15.06389788 83807","CENTER_NAME":"EARTH","PERIOD":"95.593","OBJECT_ID":"2020-025H","MEAN_MOTION":"15.06389788"},{"ARG_OF_PERICENTER":"11.5918","SEMIMAJOR_AXIS":"6732.896","EPHEMERIS_TYPE":"0","GP_ID":"187754482","PERIAPSIS":"351.851","COUNTRY_CODE":"US","MEAN_MOTION_DOT":"-0.00007730","REF_FRAME":"TEME","TLE_LINE2":"2 45539  53.0579  11.7670 0004322  11.5918 348.5198 15.71447586 84902","INCLINATION":"53.0579","DECAY_DATE":null,"MEAN_MOTION":"15.71447586","OBJECT_ID":"2020-025J","PERIOD":"91.635","CENTER_NAME":"EARTH","NORAD_CAT_ID":"45539","OBJECT_TYPE":"PAYLOAD","FILE":"3175135","MEAN_ELEMENT_THEORY":"SGP4","EPOCH":"2021-10-20T13:50:41.984448","APOAPSIS":"357.671","OBJECT_NAME":"STARLINK-1367","MEAN_MOTION_DDOT":"0.0000000000000","ECCENTRICITY":"0.00043220","ELEMENT_SET_NO":"999","TLE_LINE1":"1 45539U 20025J   21293.57687482 -.00007730  00000-0 -54666-4 0  9999","MEAN_ANOMALY":"348.5198","RCS_SIZE":"LARGE","BSTAR":"-0.00005466600000","LAUNCH_DATE":"2020-04-22","RA_OF_ASC_NODE":"11.7670","TIME_SYSTEM":"UTC","SITE":"AFETR","REV_AT_EPOCH":"8490","CLASSIFICATION_TYPE":"U"},{"TLE_LINE2":"2 45540  53.0552  93.6560 0001742  89.6407 270.4782 15.06404506 83784","REF_FRAME":"TEME","DECAY_DATE":null,"INCLINATION":"53.0552","MEAN_MOTION":"15.06404506","OBJECT_ID":"2020-025K","PERIOD":"95.592","CENTER_NAME":"EARTH","ARG_OF_PERICENTER":"89.6407","SEMIMAJOR_AXIS":"6925.335","PERIAPSIS":"545.993","EPHEMERIS_TYPE":"0","GP_ID":"187754733","COUNTRY_CODE":"US","MEAN_MOTION_DOT":"0.00001167","TLE_LINE1":"1 45540U 20025K   21293.72091234  .00001167  00000-0  97234-4 0  9996","MEAN_ANOMALY":"270.4782","RCS_SIZE":"LARGE","BSTAR":"0.00009723400000","TIME_SYSTEM":"UTC","LAUNCH_DATE":"2020-04-22","RA_OF_ASC_NODE":"93.6560","SITE":"AFETR","CLASSIFICATION_TYPE":"U","REV_AT_EPOCH":"8378","OBJECT_TYPE":"PAYLOAD","NORAD_CAT_ID":"45540","FILE":"3175135","MEAN_ELEMENT_THEORY":"SGP4","OBJECT_NAME":"STARLINK-1368","APOAPSIS":"548.406","EPOCH":"2021-10-20T17:18:06.826176","ELEMENT_SET_NO":"999","ECCENTRICITY":"0.00017420","MEAN_MOTION_DDOT":"0.0000000000000"},{"MEAN_ANOMALY":"273.2132","TLE_LINE1":"1 45541U 20025L   21293.85728229 -.00000286  00000-0 -30810-6 0  9994","BSTAR":"-0.00000030810000","RCS_SIZE":"LARGE","TIME_SYSTEM":"UTC","RA_OF_ASC_NODE":"93.0391","LAUNCH_DATE":"2020-04-22","REV_AT_EPOCH":"8380","CLASSIFICATION_TYPE":"U","SITE":"AFETR","OBJECT_TYPE":"PAYLOAD","NORAD_CAT_ID":"45541","MEAN_ELEMENT_THEORY":"SGP4","FILE":"3175135","ELEMENT_SET_NO":"999","MEAN_MOTION_DDOT":"0.0000000000000","ECCENTRICITY":"0.00014900","OBJECT_NAME":"STARLINK-1369","APOAPSIS":"548.225","EPOCH":"2021-10-20T20:34:29.189856","DECAY_DATE":null,"INCLINATION":"53.0537","TLE_LINE2":"2 45541  53.0537  93.0391 0001490  86.9027 273.2132 15.06406660 83808","REF_FRAME":"TEME","OBJECT_ID":"2020-025L","MEAN_MOTION":"15.06406660","CENTER_NAME":"EARTH","PERIOD":"95.592","ARG_OF_PERICENTER":"86.9027","SEMIMAJOR_AXIS":"6925.328","PERIAPSIS":"546.161","EPHEMERIS_TYPE":"0","GP_ID":"187754973","MEAN_MOTION_DOT":"-0.00000286","COUNTRY_CODE":"US"},{"FILE":"3175135","MEAN_ELEMENT_THEORY":"SGP4","NORAD_CAT_ID":"45542","OBJECT_TYPE":"PAYLOAD","EPOCH":"2021-10-20T18:11:10.567680","APOAPSIS":"548.309","OBJECT_NAME":"STARLINK-1371","ECCENTRICITY":"0.00015750","MEAN_MOTION_DDOT":"0.0000000000000","ELEMENT_SET_NO":"999","RCS_SIZE":"LARGE","BSTAR":"0.00005773800000","TLE_LINE1":"1 45542U 20025M   21293.75776120  .00000579  00000-0  57738-4 0  9996","MEAN_ANOMALY":"264.0124","SITE":"AFETR","CLASSIFICATION_TYPE":"U","REV_AT_EPOCH":"8379","LAUNCH_DATE":"2020-04-22","RA_OF_ASC_NODE":"93.4844","TIME_SYSTEM":"UTC","SEMIMAJOR_AXIS":"6925.353","ARG_OF_PERICENTER":"96.1044","COUNTRY_CODE":"US","MEAN_MOTION_DOT":"0.00000579","EPHEMERIS_TYPE":"0","GP_ID":"187753732","PERIAPSIS":"546.127","REF_FRAME":"TEME","TLE_LINE2":"2 45542  53.0545  93.4844 0001575  96.1044 264.0124 15.06398479 83796","INCLINATION":"53.0545","DECAY_DATE":null,"CENTER_NAME":"EARTH","PERIOD":"95.592","MEAN_MOTION":"15.06398479","OBJECT_ID":"2020-025M"},{"NORAD_CAT_ID":"45543","OBJECT_TYPE":"PAYLOAD","MEAN_ELEMENT_THEORY":"SGP4","FILE":"3175135","MEAN_MOTION_DDOT":"0.0000000000000","ECCENTRICITY":"0.00017980","ELEMENT_SET_NO":"999","EPOCH":"2021-10-20T20:39:48.265920","APOAPSIS":"548.447","OBJECT_NAME":"STARLINK-1372","MEAN_ANOMALY":"270.1742","TLE_LINE1":"1 45543U 20025N   21293.86097530  .00000806  00000-0  72974-4 0  9992","BSTAR":"0.00007297400000","RCS_SIZE":"LARGE","RA_OF_ASC_NODE":"93.0181","LAUNCH_DATE":"2020-04-22","TIME_SYSTEM":"UTC","CLASSIFICATION_TYPE":"U","REV_AT_EPOCH":"8290","SITE":"AFETR","ARG_OF_PERICENTER":"89.9453","SEMIMAJOR_AXIS":"6925.336","GP_ID":"187753982","EPHEMERIS_TYPE":"0","PERIAPSIS":"545.956","MEAN_MOTION_DOT":"0.00000806","COUNTRY_CODE":"US","INCLINATION":"53.0532","DECAY_DATE":null,"REF_FRAME":"TEME","TLE_LINE2":"2 45543  53.0532  93.0181 0001798  89.9453 270.1742 15.06403958 82909","OBJECT_ID":"2020-025N","MEAN_MOTION":"15.06403958","CENTER_NAME":"EARTH","PERIOD":"95.592"},{"MEAN_MOTION":"15.06408475","OBJECT_ID":"2020-025P","PERIOD":"95.592","CENTER_NAME":"EARTH","REF_FRAME":"TEME","TLE_LINE2":"2 45544  53.0545  93.2420 0001452  89.1918 270.9238 15.06408475 83804","INCLINATION":"53.0545","DECAY_DATE":null,"EPHEMERIS_TYPE":"0","GP_ID":"187755234","PERIAPSIS":"546.182","COUNTRY_CODE":"US","MEAN_MOTION_DOT":"-0.00000944","ARG_OF_PERICENTER":"89.1918","SEMIMAJOR_AXIS":"6925.323","RA_OF_ASC_NODE":"93.2420","LAUNCH_DATE":"2020-04-22","TIME_SYSTEM":"UTC","SITE":"AFETR","CLASSIFICATION_TYPE":"U","REV_AT_EPOCH":"8380","TLE_LINE1":"1 45544U 20025P   21293.81305125 -.00000944  00000-0 -44489-4 0  9995","MEAN_ANOMALY":"270.9238","RCS_SIZE":"LARGE","BSTAR":"-0.00004448900000","EPOCH":"2021-10-20T19:30:47.628000","OBJECT_NAME":"STARLINK-1373","APOAPSIS":"548.193","MEAN_MOTION_DDOT":"0.0000000000000","ECCENTRICITY":"0.00014520","ELEMENT_SET_NO":"999","NORAD_CAT_ID":"45544","OBJECT_TYPE":"PAYLOAD","FILE":"3175135","MEAN_ELEMENT_THEORY":"SGP4"},{"EPHEMERIS_TYPE":"0","GP_ID":"187755474","PERIAPSIS":"546.230","COUNTRY_CODE":"US","MEAN_MOTION_DOT":"0.00001098","ARG_OF_PERICENTER":"82.6587","SEMIMAJOR_AXIS":"6925.381","MEAN_MOTION":"15.06389440","OBJECT_ID":"2020-025Q","CENTER_NAME":"EARTH","PERIOD":"95.593","REF_FRAME":"TEME","TLE_LINE2":"2 45545  53.0556  93.4600 0001467  82.6587 277.4569 15.06389440 83770","INCLINATION":"53.0556","DECAY_DATE":null,"EPOCH":"2021-10-20T18:21:49.866336","OBJECT_NAME":"STARLINK-1374","APOAPSIS":"548.262","ECCENTRICITY":"0.00014670","MEAN_MOTION_DDOT":"0.0000000000000","ELEMENT_SET_NO":"999","NORAD_CAT_ID":"45545","OBJECT_TYPE":"PAYLOAD","FILE":"3175135","MEAN_ELEMENT_THEORY":"SGP4","LAUNCH_DATE":"2020-04-22","RA_OF_ASC_NODE":"93.4600","TIME_SYSTEM":"UTC","SITE":"AFETR","REV_AT_EPOCH":"8377","CLASSIFICATION_TYPE":"U","TLE_LINE1":"1 45545U 20025Q   21293.76516049  .00001098  00000-0  92612-4 0  9999","MEAN_ANOMALY":"277.4569","RCS_SIZE":"LARGE","BSTAR":"0.00009261200000"},{"EPHEMERIS_TYPE":"0","GP_ID":"187754233","PERIAPSIS":"546.075","MEAN_MOTION_DOT":"0.00000836","COUNTRY_CODE":"US","ARG_OF_PERICENTER":"81.4764","SEMIMAJOR_AXIS":"6925.346","OBJECT_ID":"2020-025R","MEAN_MOTION":"15.06400939","CENTER_NAME":"EARTH","PERIOD":"95.592","INCLINATION":"53.0534","DECAY_DATE":null,"REF_FRAME":"TEME","TLE_LINE2":"2 45546  53.0534  93.6995 0001640  81.4764 278.6411 15.06400939 83780","MEAN_MOTION_DDOT":"0.0000000000000","ECCENTRICITY":"0.00016400","ELEMENT_SET_NO":"999","EPOCH":"2021-10-20T17:02:11.064192","APOAPSIS":"548.346","OBJECT_NAME":"STARLINK-1375","NORAD_CAT_ID":"45546","OBJECT_TYPE":"PAYLOAD","MEAN_ELEMENT_THEORY":"SGP4","FILE":"3175135","RA_OF_ASC_NODE":"93.6995","LAUNCH_DATE":"2020-04-22","TIME_SYSTEM":"UTC","REV_AT_EPOCH":"8378","CLASSIFICATION_TYPE":"U","SITE":"AFETR","MEAN_ANOMALY":"278.6411","TLE_LINE1":"1 45546U 20025R   21293.70985028  .00000836  00000-0  75035-4 0  9990","BSTAR":"0.00007503500000","RCS_SIZE":"LARGE"},{"OBJECT_ID":"2020-025S","MEAN_MOTION":"15.06399856","CENTER_NAME":"EARTH","PERIOD":"95.592","DECAY_DATE":null,"INCLINATION":"53.0533","TLE_LINE2":"2 45547  53.0533  93.4162 0001226  89.3783 270.7346 15.06399856 83800","REF_FRAME":"TEME","PERIAPSIS":"546.365","GP_ID":"187754483","EPHEMERIS_TYPE":"0","MEAN_MOTION_DOT":"0.00001332","COUNTRY_CODE":"US","ARG_OF_PERICENTER":"89.3783","SEMIMAJOR_AXIS":"6925.349","TIME_SYSTEM":"UTC","LAUNCH_DATE":"2020-04-22","RA_OF_ASC_NODE":"93.4162","REV_AT_EPOCH":"8380","CLASSIFICATION_TYPE":"U","SITE":"AFETR","MEAN_ANOMALY":"270.7346","TLE_LINE1":"1 45547U 20025S   21293.77251071  .00001332  00000-0  10828-3 0  9992","BSTAR":"0.00010828000000","RCS_SIZE":"LARGE","ELEMENT_SET_NO":"999","ECCENTRICITY":"0.00012260","MEAN_MOTION_DDOT":"0.0000000000000","OBJECT_NAME":"STARLINK-1377","APOAPSIS":"548.063","EPOCH":"2021-10-20T18:32:24.925344","OBJECT_TYPE":"PAYLOAD","NORAD_CAT_ID":"45547","MEAN_ELEMENT_THEORY":"SGP4","FILE":"3175135"}];
